[{"OBJECT_NAME":"JILIN-01 KUANFU 02B 6","OBJECT_ID":"2024-169F","EPOCH":"2026-03-09T21:43:38.712288","MEAN_MOTION":15.09238946,"ECCENTRICITY":0.00150747,"INCLINATION":97.5549,"RA_OF_ASC_NODE":159.9459,"ARG_OF_PERICENTER":324.4254,"MEAN_ANOMALY":35.5968,"EPHEMERIS_TYPE":0,"CLASSIFICATION_TYPE":"U","NORAD_CAT_ID":61194,"ELEMENT_SET_NO":999,"REV_AT_EPOCH":8086,"BSTAR":0.00036442477,"MEAN_MOTION_DOT":5.751e-5,"MEAN_MOTION_DDOT":0},{"OBJECT_NAME":"STARLINK-34706","OBJECT_ID":"2025-152D","EPOCH":"2026-03-09T13:21:56.917728","MEAN_MOTION":15.0566891,"ECCENTRICITY":0.00016781,"INCLINATION":97.6018,"RA_OF_ASC_NODE":285.3179,"ARG_OF_PERICENTER":78.6066,"MEAN_ANOMALY":281.5349,"EPHEMERIS_TYPE":0,"CLASSIFICATION_TYPE":"U","NORAD_CAT_ID":64845,"ELEMENT_SET_NO":999,"REV_AT_EPOCH":3539,"BSTAR":-2.7094144e-5,"MEAN_MOTION_DOT":-4.52e-6,"MEAN_MOTION_DDOT":0}]
